JY1SAT (JO-97)          
1 43803U 18099AX  26068.68634132  .00017774  00000+0  60804-3 0  9996
2 43803  97.4249 131.3625 0004723 256.6795 103.3919 15.30302628398390
STARLINK-30123          
1 56838U 23079R   26068.28086847 -.00002086  00000+0 -66311-4 0  9994
2 56838  43.0029  36.2461 0000573 244.6069 115.4724 15.27582130153689
